0 IRIDIUM 33 DEB
1 35296U 97051PL  13286.26925003  .00003300  00000-0  10606-2 0  2910
2 35296 086.3150 112.2691 0020541 335.9152 149.5349 14.39027031232644
0 IRIDIUM 33 DEB
1 35296U 97051PL  13288.28496563  .00005107  00000-0  16437-2 0  2924
2 35296 086.3140 111.4005 0020512 329.8648 151.4230 14.39043251232938
0 IRIDIUM 33 DEB
1 35296U 97051PL  13291.27488547  .00004301  00000-0  13829-2 0  2938
2 35296 086.3145 110.1132 0020079 318.1314 162.9181 14.39066016233363
0 IRIDIUM 33 DEB
1 35296U 97051PL  13293.29083631  .00004930  00000-0  15857-2 0  2949
2 35296 086.3144 109.2447 0019924 310.8331 167.5681 14.39079792233658
0 IRIDIUM 33 DEB
1 35296U 97051PL  13295.84946694  .00005628  00000-0  18101-2 0  2950
2 35296 086.3148 108.1422 0019837 301.9555 103.6117 14.39100568234028
